{
  "features": [
    {
      "geometry": {
        "coordinates": [
          [
            [
              117.0,
              31.63338175341425
            ],
            [
              117.00210905389049,
              31.63338173599561
            ],
            [
              117.00210909461005,
              31.635186202592735
            ],
            [
              117.0,
              31.635186220012606
            ],
            [
              117.0,
              31.63338175341425
            ]
          ]
        ],
        "type": "Polygon"
      },
      "properties": {
        "label": "SYNTHETIC / DEMONSTRATION DATA",
        "unit_id": "U1"
      },
      "type": "Feature"
    },
    {
      "geometry": {
        "coordinates": [
          [
            [
              117.00210905389049,
              31.63338173599561
            ],
            [
              117.00421810777736,
              31.633381683739636
            ],
            [
              117.00421818921643,
              31.635186150333112
            ],
            [
              117.00210909461005,
              31.635186202592735
            ],
            [
              117.00210905389049,
              31.63338173599561
            ]
          ]
        ],
        "type": "Polygon"
      },
      "properties": {
        "label": "SYNTHETIC / DEMONSTRATION DATA",
        "unit_id": "U2"
      },
      "type": "Feature"
    },
    {
      "geometry": {
        "coordinates": [
          [
            [
              117.0,
              31.631577286305287
            ],
            [
              117.00210901317462,
              31.631577268887852
            ],
            [
              117.00210905389049,
              31.63338173599561
            ],
            [
              117.0,
              31.63338175341425
            ],
            [
              117.0,
              31.631577286305287
            ]
          ]
        ],
        "type": "Polygon"
      },
      "properties": {
        "label": "SYNTHETIC / DEMONSTRATION DATA",
        "unit_id": "U3"
      },
      "type": "Feature"
    },
    {
      "geometry": {
        "coordinates": [
          [
            [
              117.00210901317462,
              31.631577268887852
            ],
            [
              117.00421802634558,
              31.631577216635563
            ],
            [
              117.00421810777736,
              31.633381683739636
            ],
            [
              117.00210905389049,
              31.63338173599561
            ],
            [
              117.00210901317462,
              31.631577268887852
            ]
          ]
        ],
        "type": "Polygon"
      },
      "properties": {
        "label": "SYNTHETIC / DEMONSTRATION DATA",
        "unit_id": "U4"
      },
      "type": "Feature"
    }
  ],
  "label": "SYNTHETIC / DEMONSTRATION DATA",
  "name": "management_units.geojson",
  "type": "FeatureCollection"
}
