{"features": [{"geometry": {"coordinates": [[[113.0, 22.0], [113.001, 22.0], [113.001, 22.001], [113.0, 22.001], [113.0, 22.0]]], "type": "Polygon"}, "id": "a", "properties": {"area_basis": "WGS84_ellipsoid_geodesic_edges", "area_m2": 11434.206607222557, "source_properties": {"cost": 2}, "unit_id": "a", "unit_index": 1}, "type": "Feature"}, {"geometry": {"coordinates": [[[113.001, 22.0], [113.00200000000001, 22.0], [113.00200000000001, 22.001], [113.001, 22.001], [113.001, 22.0]]], "type": "Polygon"}, "id": "b", "properties": {"area_basis": "WGS84_ellipsoid_geodesic_edges", "area_m2": 11434.206607222557, "source_properties": {"cost": 5}, "unit_id": "b", "unit_index": 2}, "type": "Feature"}], "located_count": 2, "observation_count": 2, "source_asset_id": "a69647badc9beb5d2f08cdef5ab3a217", "source_sha256": "eedaa470ee1eaec822400c161b3d81efe119495f3c1c6195108d0ab9f43931bc", "target_crs": "EPSG:4326", "theme_property": "area_m2", "type": "FeatureCollection", "unlocated": []}